MALLIGYONG-1            
1 58400U 23179A   24077.59905965  .00004649  00000+0  20992-3 0  9994
2 58400  97.4164 325.8158 0008490 214.3927 145.6760 15.21437651 17799
